0 COSMOS 1797
1 17141U 86092D   13280.79603853 -.00000016  00000-0  19942-5 0  1387
2 17141 074.0142 322.2046 0017574 100.3982 307.9437 12.51575660228272
0 COSMOS 1797
1 17141U 86092D   13282.80949197  .00000014  00000-0  18983-3 0  1395
2 17141 074.0140 319.5184 0017562 097.2084 020.0647 12.51575459228526
0 COSMOS 1797
1 17141U 86092D   13287.53625264 -.00000000  00000-0  10098-3 0  1414
2 17141 074.0130 313.2120 0017551 089.7407 077.6484 12.51575843229119
0 COSMOS 1797
1 17141U 86092D   13289.76318469 -.00000020  00000-0 -23928-4 0  1428
2 17141 074.0129 310.2404 0017564 086.2535 031.6103 12.51576104229396
0 COSMOS 1797
1 17141U 86092D   13292.14958065 -.00000028  00000-0 -78896-4 0  1439
2 17141 074.0130 307.0559 0017580 082.6000 343.9925 12.51576057229699
0 COSMOS 1797
1 17141U 86092D   13294.48999194 -.00000001  00000-0  98951-4 0  1441
2 17141 074.0130 303.9331 0017593 078.9196 089.2800 12.51575847229980
